{
  "type": "FeatureCollection",
  "features": [
    {
      "type": "Feature",
      "properties": {
        "norad_id": 29857,
        "name": "FENGYUN 1C DEB",
        "group": "fengyun-1c-debris",
        "lat": 14.23018304709419,
        "lon": -6.67346279133998,
        "alt_km": 941.5284391967107,
        "timestamp": "2025-12-14T07:33:19.749257+00:00",
        "meta_object_name": "FENGYUN 1C DEB",
        "meta_object_id": "1999-025FB",
        "meta_epoch": "2025-12-13T12:22:19.312320",
        "meta_mean_motion": 13.81883687,
        "meta_eccentricity": 0.01927988,
        "meta_inclination": 98.4233,
        "meta_ra_of_asc_node": 354.7654,
        "meta_arg_of_pericenter": 292.2867,
        "meta_mean_anomaly": 65.7948,
        "meta_ephemeris_type": 0,
        "meta_classification_type": "U",
        "meta_norad_cat_id": 29857,
        "meta_element_set_no": 999,
        "meta_rev_at_epoch": 94786,
        "meta_bstar": 0.00219963,
        "meta_mean_motion_dot": 2.678e-05,
        "meta_mean_motion_ddot": 0,
        "tle_line1": "1 29857U 99025FB  25347.51550130  .00002678  00000+0  21996-2 0  9998",
        "tle_line2": "2 29857  98.4233 354.7654 0192798 292.2867  65.7948 13.81883687947864"
      },
      "geometry": {
        "type": "Point",
        "coordinates": [
          -6.67346279133998,
          14.23018304709419
        ]
      }
    },
    {
      "type": "Feature",
      "properties": {
        "norad_id": 29858,
        "name": "FENGYUN 1C DEB",
        "group": "fengyun-1c-debris",
        "lat": -68.71042300682795,
        "lon": -114.71613752686243,
        "alt_km": 1122.2012778925036,
        "timestamp": "2025-12-14T07:33:19.749267+00:00",
        "meta_object_name": "FENGYUN 1C DEB",
        "meta_object_id": "1999-025FC",
        "meta_epoch": "2025-12-13T12:59:43.442592",
        "meta_mean_motion": 13.7779056,
        "meta_eccentricity": 0.0198331,
        "meta_inclination": 99.2127,
        "meta_ra_of_asc_node": 89.1459,
        "meta_arg_of_pericenter": 62.2338,
        "meta_mean_anomaly": 315.1264,
        "meta_ephemeris_type": 0,
        "meta_classification_type": "U",
        "meta_norad_cat_id": 29858,
        "meta_element_set_no": 999,
        "meta_rev_at_epoch": 94565,
        "meta_bstar": 0.0015859321,
        "meta_mean_motion_dot": 1.794e-05,
        "meta_mean_motion_ddot": 0,
        "tle_line1": "1 29858U 99025FC  25347.54147503  .00001794  00000+0  15859-2 0  9997",
        "tle_line2": "2 29858  99.2127  89.1459 0198331  62.2338 315.1264 13.77790560945655"
      },
      "geometry": {
        "type": "Point",
        "coordinates": [
          -114.71613752686243,
          -68.71042300682795
        ]
      }
    },
    {
      "type": "Feature",
      "properties": {
        "norad_id": 29859,
        "name": "FENGYUN 1C DEB",
        "group": "fengyun-1c-debris",
        "lat": 36.59468060241887,
        "lon": 9.082560077390111,
        "alt_km": 888.3024677128842,
        "timestamp": "2025-12-14T07:33:19.749277+00:00",
        "meta_object_name": "FENGYUN 1C DEB",
        "meta_object_id": "1999-025FD",
        "meta_epoch": "2025-12-13T11:36:55.026144",
        "meta_mean_motion": 13.74042566,
        "meta_eccentricity": 0.0294951,
        "meta_inclination": 98.3357,
        "meta_ra_of_asc_node": 182.1067,
        "meta_arg_of_pericenter": 210.9635,
        "meta_mean_anomaly": 147.3835,
        "meta_ephemeris_type": 0,
        "meta_classification_type": "U",
        "meta_norad_cat_id": 29859,
        "meta_element_set_no": 999,
        "meta_rev_at_epoch": 93990,
        "meta_bstar": 0.0038549927,
        "meta_mean_motion_dot": 4.925e-05,
        "meta_mean_motion_ddot": 0,
        "tle_line1": "1 29859U 99025FD  25347.48397021  .00004925  00000+0  38550-2 0  9995",
        "tle_line2": "2 29859  98.3357 182.1067 0294951 210.9635 147.3835 13.74042566939900"
      },
      "geometry": {
        "type": "Point",
        "coordinates": [
          9.082560077390111,
          36.59468060241887
        ]
      }
    },
    {
      "type": "Feature",
      "properties": {
        "norad_id": 29860,
        "name": "FENGYUN 1C DEB",
        "group": "fengyun-1c-debris",
        "lat": -53.47161401755804,
        "lon": 33.896646416166426,
        "alt_km": 842.7026845630708,
        "timestamp": "2025-12-14T07:33:19.749287+00:00",
        "meta_object_name": "FENGYUN 1C DEB",
        "meta_object_id": "1999-025FE",
        "meta_epoch": "2025-12-13T16:44:03.054048",
        "meta_mean_motion": 13.77535053,
        "meta_eccentricity": 0.02210229,
        "meta_inclination": 98.618,
        "meta_ra_of_asc_node": 21.5221,
        "meta_arg_of_pericenter": 340.6759,
        "meta_mean_anomaly": 145.5324,
        "meta_ephemeris_type": 0,
        "meta_classification_type": "U",
        "meta_norad_cat_id": 29860,
        "meta_element_set_no": 999,
        "meta_rev_at_epoch": 94152,
        "meta_bstar": 0.0028829295,
        "meta_mean_motion_dot": 3.401e-05,
        "meta_mean_motion_ddot": 0,
        "tle_line1": "1 29860U 99025FE  25347.69725757  .00003401  00000+0  28829-2 0  9997",
        "tle_line2": "2 29860  98.6180  21.5221 0221022 340.6759 145.5324 13.77535053941529"
      },
      "geometry": {
        "type": "Point",
        "coordinates": [
          33.896646416166426,
          -53.47161401755804
        ]
      }
    },
    {
      "type": "Feature",
      "properties": {
        "norad_id": 29865,
        "name": "FENGYUN 1C DEB",
        "group": "fengyun-1c-debris",
        "lat": -78.14273899301985,
        "lon": -52.329339698222434,
        "alt_km": 691.7452894098087,
        "timestamp": "2025-12-14T07:33:19.749298+00:00",
        "meta_object_name": "FENGYUN 1C DEB",
        "meta_object_id": "1999-025FK",
        "meta_epoch": "2025-12-13T08:09:51.664320",
        "meta_mean_motion": 14.82611389,
        "meta_eccentricity": 0.01163829,
        "meta_inclination": 98.9198,
        "meta_ra_of_asc_node": 258.1628,
        "meta_arg_of_pericenter": 139.4117,
        "meta_mean_anomaly": 338.6658,
        "meta_ephemeris_type": 0,
        "meta_classification_type": "U",
        "meta_norad_cat_id": 29865,
        "meta_element_set_no": 999,
        "meta_rev_at_epoch": 767,
        "meta_bstar": 0.0011100957,
        "meta_mean_motion_dot": 0.00010004,
        "meta_mean_motion_ddot": 0,
        "tle_line1": "1 29865U 99025FK  25347.34018130  .00010004  00000+0  11101-2 0  9996",
        "tle_line2": "2 29865  98.9198 258.1628 0116382 139.4117 338.6658 14.82611389  7677"
      },
      "geometry": {
        "type": "Point",
        "coordinates": [
          -52.329339698222434,
          -78.14273899301985
        ]
      }
    },
    {
      "type": "Feature",
      "properties": {
        "norad_id": 29866,
        "name": "FENGYUN 1C DEB",
        "group": "fengyun-1c-debris",
        "lat": -54.72318990872587,
        "lon": -14.468338240321582,
        "alt_km": 695.0814672990928,
        "timestamp": "2025-12-14T07:33:19.749308+00:00",
        "meta_object_name": "FENGYUN 1C DEB",
        "meta_object_id": "1999-025FL",
        "meta_epoch": "2025-12-13T12:42:14.052384",
        "meta_mean_motion": 14.64217922,
        "meta_eccentricity": 0.01943942,
        "meta_inclination": 98.0373,
        "meta_ra_of_asc_node": 333.2431,
        "meta_arg_of_pericenter": 212.3619,
        "meta_mean_anomaly": 272.002,
        "meta_ephemeris_type": 0,
        "meta_classification_type": "U",
        "meta_norad_cat_id": 29866,
        "meta_element_set_no": 999,
        "meta_rev_at_epoch": 338,
        "meta_bstar": 0.00039352678,
        "meta_mean_motion_dot": 2.674e-05,
        "meta_mean_motion_ddot": 0,
        "tle_line1": "1 29866U 99025FL  25347.52932931  .00002674  00000+0  39353-3 0  9995",
        "tle_line2": "2 29866  98.0373 333.2431 0194394 212.3619 272.0020 14.64217922  3381"
      },
      "geometry": {
        "type": "Point",
        "coordinates": [
          -14.468338240321582,
          -54.72318990872587
        ]
      }
    },
    {
      "type": "Feature",
      "properties": {
        "norad_id": 29868,
        "name": "FENGYUN 1C DEB",
        "group": "fengyun-1c-debris",
        "lat": -40.646883620935114,
        "lon": -152.85420934908433,
        "alt_km": 741.905823295755,
        "timestamp": "2025-12-14T07:33:19.749318+00:00",
        "meta_object_name": "FENGYUN 1C DEB",
        "meta_object_id": "1999-025FN",
        "meta_epoch": "2025-12-13T16:29:13.698240",
        "meta_mean_motion": 14.78442081,
        "meta_eccentricity": 0.01966429,
        "meta_inclination": 97.9506,
        "meta_ra_of_asc_node": 33.4165,
        "meta_arg_of_pericenter": 0.9845,
        "meta_mean_anomaly": 121.9395,
        "meta_ephemeris_type": 0,
        "meta_classification_type": "U",
        "meta_norad_cat_id": 29868,
        "meta_element_set_no": 999,
        "meta_rev_at_epoch": 309,
        "meta_bstar": 0.00080730857,
        "meta_mean_motion_dot": 8.095e-05,
        "meta_mean_motion_ddot": 0,
        "tle_line1": "1 29868U 99025FN  25347.68696410  .00008095  00000+0  80731-3 0  9992",
        "tle_line2": "2 29868  97.9506  33.4165 0196642   0.9845 121.9395 14.78442081  3098"
      },
      "geometry": {
        "type": "Point",
        "coordinates": [
          -152.85420934908433,
          -40.646883620935114
        ]
      }
    }
  ]
}